CCSDS_OMM_VERS = 2.0
CREATION_DATE  = 
ORIGINATOR     = 

OBJECT_NAME    = ALOS-2
OBJECT_ID      = 2014-029A
CENTER_NAME    = EARTH
REF_FRAME      = TEME
TIME_SYSTEM    = UTC
MEAN_ELEMENT_THEORY = SGP/SGP4

EPOCH          = 2025-11-07T05:39:29.611296
MEAN_MOTION    = 14.79482334
ECCENTRICITY   = .0001215
INCLINATION    = 97.9236
RA_OF_ASC_NODE = 46.5868
ARG_OF_PERICENTER = 102.0007
MEAN_ANOMALY   = 258.1341

EPHEMERIS_TYPE = 0
CLASSIFICATION_TYPE = U
NORAD_CAT_ID   = 39766
ELEMENT_SET_NO = 999
REV_AT_EPOCH   = 61876
BSTAR          = .38242E-3
MEAN_MOTION_DOT = .2806E-4
MEAN_MOTION_DDOT = 0

CCSDS_OMM_VERS = 2.0
CREATION_DATE  = 
ORIGINATOR     = 

OBJECT_NAME    = YAOGAN-29
OBJECT_ID      = 2015-069A
CENTER_NAME    = EARTH
REF_FRAME      = TEME
TIME_SYSTEM    = UTC
MEAN_ELEMENT_THEORY = SGP/SGP4

EPOCH          = 2025-11-07T04:34:54.821856
MEAN_MOTION    = 14.82820757
ECCENTRICITY   = .0002436
INCLINATION    = 98.0258
RA_OF_ASC_NODE = 334.2419
ARG_OF_PERICENTER = 57.5426
MEAN_ANOMALY   = 302.6022

EPHEMERIS_TYPE = 0
CLASSIFICATION_TYPE = U
NORAD_CAT_ID   = 41038
ELEMENT_SET_NO = 999
REV_AT_EPOCH   = 53772
BSTAR          = .82796E-4
MEAN_MOTION_DOT = .616E-5
MEAN_MOTION_DDOT = 0

CCSDS_OMM_VERS = 2.0
CREATION_DATE  = 
ORIGINATOR     = 

OBJECT_NAME    = ASTRO-H (HITOMI)
OBJECT_ID      = 2016-012A
CENTER_NAME    = EARTH
REF_FRAME      = TEME
TIME_SYSTEM    = UTC
MEAN_ELEMENT_THEORY = SGP/SGP4

EPOCH          = 2025-11-06T18:38:51.603360
MEAN_MOTION    = 15.09020193
ECCENTRICITY   = .00098758
INCLINATION    = 30.9999
RA_OF_ASC_NODE = 69.1512
ARG_OF_PERICENTER = 176.2582
MEAN_ANOMALY   = 183.8131

EPHEMERIS_TYPE = 0
CLASSIFICATION_TYPE = U
NORAD_CAT_ID   = 41337
ELEMENT_SET_NO = 999
REV_AT_EPOCH   = 53364
BSTAR          = .31390304E-3
MEAN_MOTION_DOT = .5187E-4
MEAN_MOTION_DDOT = 0

CCSDS_OMM_VERS = 2.0
CREATION_DATE  = 
ORIGINATOR     = 

OBJECT_NAME    = HXMT (HUIYAN)
OBJECT_ID      = 2017-034A
CENTER_NAME    = EARTH
REF_FRAME      = TEME
TIME_SYSTEM    = UTC
MEAN_ELEMENT_THEORY = SGP/SGP4

EPOCH          = 2025-11-07T05:05:02.321952
MEAN_MOTION    = 15.15654134
ECCENTRICITY   = .0032995
INCLINATION    = 43.0154
RA_OF_ASC_NODE = 336.7025
ARG_OF_PERICENTER = 183.3158
MEAN_ANOMALY   = 176.7475

EPHEMERIS_TYPE = 0
CLASSIFICATION_TYPE = U
NORAD_CAT_ID   = 42758
ELEMENT_SET_NO = 999
REV_AT_EPOCH   = 46394
BSTAR          = .39391E-3
MEAN_MOTION_DOT = .75E-4
MEAN_MOTION_DDOT = 0

CCSDS_OMM_VERS = 2.0
CREATION_DATE  = 
ORIGINATOR     = 

OBJECT_NAME    = CZ-2C R/B
OBJECT_ID      = 2018-054D
CENTER_NAME    = EARTH
REF_FRAME      = TEME
TIME_SYSTEM    = UTC
MEAN_ELEMENT_THEORY = SGP/SGP4

EPOCH          = 2025-11-06T16:23:16.381536
MEAN_MOTION    = 15.66315840
ECCENTRICITY   = .00245118
INCLINATION    = 35.1364
RA_OF_ASC_NODE = 63.9558
ARG_OF_PERICENTER = 153.9960
MEAN_ANOMALY   = 206.2007

EPHEMERIS_TYPE = 0
CLASSIFICATION_TYPE = U
NORAD_CAT_ID   = 43521
ELEMENT_SET_NO = 999
REV_AT_EPOCH   = 40938
BSTAR          = .90350416E-3
MEAN_MOTION_DOT = .99545E-3
MEAN_MOTION_DDOT = 0

CCSDS_OMM_VERS = 2.0
CREATION_DATE  = 
ORIGINATOR     = 

OBJECT_NAME    = SAOCOM 1A
OBJECT_ID      = 2018-076A
CENTER_NAME    = EARTH
REF_FRAME      = TEME
TIME_SYSTEM    = UTC
MEAN_ELEMENT_THEORY = SGP/SGP4

EPOCH          = 2025-11-07T03:52:23.727072
MEAN_MOTION    = 14.82150981
ECCENTRICITY   = .0001347
INCLINATION    = 97.8870
RA_OF_ASC_NODE = 136.0988
ARG_OF_PERICENTER = 91.3795
MEAN_ANOMALY   = 268.7572

EPHEMERIS_TYPE = 0
CLASSIFICATION_TYPE = U
NORAD_CAT_ID   = 43641
ELEMENT_SET_NO = 999
REV_AT_EPOCH   = 38321
BSTAR          = .84347E-4
MEAN_MOTION_DOT = .619E-5
MEAN_MOTION_DDOT = 0

CCSDS_OMM_VERS = 2.0
CREATION_DATE  = 
ORIGINATOR     = 

OBJECT_NAME    = H-2A R/B
OBJECT_ID      = 2018-084L
CENTER_NAME    = EARTH
REF_FRAME      = TEME
TIME_SYSTEM    = UTC
MEAN_ELEMENT_THEORY = SGP/SGP4

EPOCH          = 2025-11-07T01:40:36.067296
MEAN_MOTION    = 15.35598231
ECCENTRICITY   = .0029296
INCLINATION    = 98.8798
RA_OF_ASC_NODE = 137.8064
ARG_OF_PERICENTER = 87.3653
MEAN_ANOMALY   = 273.0939

EPHEMERIS_TYPE = 0
CLASSIFICATION_TYPE = U
NORAD_CAT_ID   = 43682
ELEMENT_SET_NO = 999
REV_AT_EPOCH   = 38692
BSTAR          = .52151E-3
MEAN_MOTION_DOT = .1822E-3
MEAN_MOTION_DDOT = 0

CCSDS_OMM_VERS = 2.0
CREATION_DATE  = 
ORIGINATOR     = 

OBJECT_NAME    = SAOCOM 1B
OBJECT_ID      = 2020-059A
CENTER_NAME    = EARTH
REF_FRAME      = TEME
TIME_SYSTEM    = UTC
MEAN_ELEMENT_THEORY = SGP/SGP4

EPOCH          = 2025-11-07T04:37:26.973120
MEAN_MOTION    = 14.82158234
ECCENTRICITY   = .0001449
INCLINATION    = 97.8858
RA_OF_ASC_NODE = 135.2319
ARG_OF_PERICENTER = 88.4458
MEAN_ANOMALY   = 271.6921

EPHEMERIS_TYPE = 0
CLASSIFICATION_TYPE = U
NORAD_CAT_ID   = 46265
ELEMENT_SET_NO = 999
REV_AT_EPOCH   = 28060
BSTAR          = .66121E-4
MEAN_MOTION_DOT = .474E-5
MEAN_MOTION_DDOT = 0

CCSDS_OMM_VERS = 2.0
CREATION_DATE  = 
ORIGINATOR     = 

OBJECT_NAME    = CSS (TIANHE)
OBJECT_ID      = 2021-035A
CENTER_NAME    = EARTH
REF_FRAME      = TEME
TIME_SYSTEM    = UTC
MEAN_ELEMENT_THEORY = SGP/SGP4

EPOCH          = 2025-11-07T00:57:48.018240
MEAN_MOTION    = 15.60556280
ECCENTRICITY   = .0005699
INCLINATION    = 41.4666
RA_OF_ASC_NODE = 233.4859
ARG_OF_PERICENTER = 336.2635
MEAN_ANOMALY   = 23.7940

EPHEMERIS_TYPE = 0
CLASSIFICATION_TYPE = U
NORAD_CAT_ID   = 48274
ELEMENT_SET_NO = 999
REV_AT_EPOCH   = 25845
BSTAR          = .38997E-3
MEAN_MOTION_DOT = .32955E-3
MEAN_MOTION_DDOT = 0

CCSDS_OMM_VERS = 2.0
CREATION_DATE  = 
ORIGINATOR     = 

OBJECT_NAME    = COSMOS 2550
OBJECT_ID      = 2021-056A
CENTER_NAME    = EARTH
REF_FRAME      = TEME
TIME_SYSTEM    = UTC
MEAN_ELEMENT_THEORY = SGP/SGP4

EPOCH          = 2025-11-07T04:30:36.868608
MEAN_MOTION    = 15.33833100
ECCENTRICITY   = .0008362
INCLINATION    = 67.1421
RA_OF_ASC_NODE = 51.5253
ARG_OF_PERICENTER = 271.3037
MEAN_ANOMALY   = 88.7159

EPHEMERIS_TYPE = 0
CLASSIFICATION_TYPE = U
NORAD_CAT_ID   = 48865
ELEMENT_SET_NO = 999
REV_AT_EPOCH   = 24467
BSTAR          = .86773E-5
MEAN_MOTION_DOT = .94E-6
MEAN_MOTION_DDOT = 0

CCSDS_OMM_VERS = 2.0
CREATION_DATE  = 
ORIGINATOR     = 

OBJECT_NAME    = CZ-2C R/B
OBJECT_ID      = 2022-058K
CENTER_NAME    = EARTH
REF_FRAME      = TEME
TIME_SYSTEM    = UTC
MEAN_ELEMENT_THEORY = SGP/SGP4

EPOCH          = 2025-11-06T18:29:04.072992
MEAN_MOTION    = 15.45984816
ECCENTRICITY   = .00495598
INCLINATION    = 50.1923
RA_OF_ASC_NODE = 226.6440
ARG_OF_PERICENTER = 48.7546
MEAN_ANOMALY   = 311.7676

EPHEMERIS_TYPE = 0
CLASSIFICATION_TYPE = U
NORAD_CAT_ID   = 52794
ELEMENT_SET_NO = 999
REV_AT_EPOCH   = 19106
BSTAR          = .75564142E-3
MEAN_MOTION_DOT = .39084E-3
MEAN_MOTION_DDOT = 0

CCSDS_OMM_VERS = 2.0
CREATION_DATE  = 
ORIGINATOR     = 

OBJECT_NAME    = GSLV R/B
OBJECT_ID      = 2022-138AN
CENTER_NAME    = EARTH
REF_FRAME      = TEME
TIME_SYSTEM    = UTC
MEAN_ELEMENT_THEORY = SGP/SGP4

EPOCH          = 2025-11-07T03:16:11.689824
MEAN_MOTION    = 14.95833963
ECCENTRICITY   = .0019378
INCLINATION    = 87.3858
RA_OF_ASC_NODE = 207.3884
ARG_OF_PERICENTER = 233.3951
MEAN_ANOMALY   = 126.5498

EPHEMERIS_TYPE = 0
CLASSIFICATION_TYPE = U
NORAD_CAT_ID   = 54149
ELEMENT_SET_NO = 999
REV_AT_EPOCH   = 16560
BSTAR          = .39591E-3
MEAN_MOTION_DOT = .4463E-4
MEAN_MOTION_DDOT = 0

CCSDS_OMM_VERS = 2.0
CREATION_DATE  = 
ORIGINATOR     = 

OBJECT_NAME    = XRISM
OBJECT_ID      = 2023-137A
CENTER_NAME    = EARTH
REF_FRAME      = TEME
TIME_SYSTEM    = UTC
MEAN_ELEMENT_THEORY = SGP/SGP4

EPOCH          = 2025-11-06T13:05:44.915136
MEAN_MOTION    = 15.09769584
ECCENTRICITY   = .00082388
INCLINATION    = 31.0035
RA_OF_ASC_NODE = 359.1343
ARG_OF_PERICENTER = 239.1298
MEAN_ANOMALY   = 120.8530

EPHEMERIS_TYPE = 0
CLASSIFICATION_TYPE = U
NORAD_CAT_ID   = 57800
ELEMENT_SET_NO = 999
REV_AT_EPOCH   = 11915
BSTAR          = .53230655E-3
MEAN_MOTION_DOT = .8911E-4
MEAN_MOTION_DDOT = 0

CCSDS_OMM_VERS = 2.0
CREATION_DATE  = 
ORIGINATOR     = 

OBJECT_NAME    = ACS3
OBJECT_ID      = 2024-077B
CENTER_NAME    = EARTH
REF_FRAME      = TEME
TIME_SYSTEM    = UTC
MEAN_ELEMENT_THEORY = SGP/SGP4

EPOCH          = 2025-11-06T19:57:08.933760
MEAN_MOTION    = 13.83234057
ECCENTRICITY   = .00456706
INCLINATION    = 97.3261
RA_OF_ASC_NODE = 274.3982
ARG_OF_PERICENTER = 30.3798
MEAN_ANOMALY   = 329.9995

EPHEMERIS_TYPE = 0
CLASSIFICATION_TYPE = U
NORAD_CAT_ID   = 59588
ELEMENT_SET_NO = 999
REV_AT_EPOCH   = 7717
BSTAR          = .34152983E-1
MEAN_MOTION_DOT = .37914E-3
MEAN_MOTION_DDOT = 0

